OUFTI-1                 
1 41458U 16025C   22156.90999398  .00004449  00000+0  19304-3 0  9998
2 41458  98.1862 322.6280 0141612 304.5075  54.2849 15.14303611335839
E-ST@R-II               
1 41459U 16025D   22157.44666677  .00004355  00000+0  19320-3 0  9994
2 41459  98.1834 321.7858 0144593 306.7852  52.0180 15.13261294335831
AAUSAT 4                
1 41460U 16025E   22157.47398362  .00007433  00000+0  29147-3 0  9990
2 41460  98.1791 327.9186 0125893 283.0154  75.7036 15.18986351336275
AIST-2D (RS-48)         
1 41465U 16026B   22157.29046928  .00007234  00000+0  17581-3 0  9992
2 41465  97.0570  34.0098 0010254 161.7252 335.1180 15.41224247341810
NUSAT-1 (FRESCO)        
1 41557U 16033B   22157.55759321  .00007832  00000+0  23651-3 0  9998
2 41557  97.3875 255.2367 0011957  64.4853  32.2230 15.34462184335715
NUSAT-2 (BATATA)        
1 41558U 16033C   22157.39767593  .00007198  00000+0  20477-3 0  9999
2 41558  97.4066 260.7172 0011111  52.8842  12.5697 15.36386256335956
CARTOSAT-2C             
1 41599U 16040A   22157.47806215  .00002242  00000+0  10958-3 0  9994
2 41599  97.4865 217.1753 0013100 216.3146 239.7817 15.19220749330264
SATHYABAMASAT           
1 41600U 16040B   22157.11926779  .00009565  00000+0  30694-3 0  9990
2 41600  97.2203 209.8127 0012670 154.9615 205.2244 15.32443347331161
LAPAN-A3                
1 41603U 16040E   22157.58912060  .00000780  00000+0  38493-4 0  9998
2 41603  97.2061 195.0898 0012732 191.7786 319.3714 15.20643820330381
BIROS                   
1 41604U 16040F   22156.84007676  .00002279  00000+0  96055-4 0  9998
2 41604  97.2111 201.6818 0012244 166.1630 193.9946 15.24251178330698
SWAYAM                  
1 41607U 16040J   22157.12882253  .00008886  00000+0  29295-3 0  9996
2 41607  97.2156 208.1363 0012461 155.7699 204.4131 15.31602119331044
BEESAT-4                
1 41619U 16040W   22157.39628220  .00008215  00000+0  27766-3 0  9997
2 41619  97.2171 208.3229 0010958 149.1627 211.0260 15.30836968319036
3CAT-2                  
1 41732U 16051B   22157.60023326  .00006847  00000+0  21465-3 0  9994
2 41732  97.3820  80.7056 0010414 340.4467 142.1082 15.33339259323663
PRATHAM                 
1 41783U 16059A   22157.35016535  .00000226  00000+0  52390-4 0  9991
2 41783  97.9139 199.3497 0032808 206.7974 153.1535 14.63347430304006
ALSAT 1N                
1 41789U 16059G   22157.48822206  .00000400  00000+0  83477-4 0  9995
2 41789  97.9167 204.0255 0027971 188.7882 171.2833 14.64677765304269
LISHUI 1-01             
1 41845U 16066E   22157.42258698  .00041832  00000+0  43137-2 0  9999
2 41845  98.7380 287.6122 0224658 104.3269 258.2961 14.73187585295209
CARTOSAT-2D             
1 41948U 17008A   22156.76938248  .00001984  00000+0  97527-4 0  9990
2 41948  97.4635 216.5584 0006580  17.7583 342.3869 15.19194081294024
NAYIF-1 (EO-88)         
1 42017U 17008BX  22156.43494311  .00009136  00000+0  27743-3 0  9999
2 42017  97.2688 222.7260 0003341 284.9324  75.1549 15.34292729295236
ZHUHAI-1 02 (CAS-4B)    
1 42759U 17034B   22157.09316177  .00002396  00000+0  15056-3 0  9992
2 42759  43.0192  35.3149 0009510 226.0745 287.1663 15.11826460274633
ZHUHAI-1 01 (CAS-4A)    
1 42761U 17034D   22157.39702131  .00002447  00000+0  15308-3 0  9994
2 42761  43.0185  32.4358 0009780 230.5665 299.8910 15.11921698274687
UCLSAT                  
1 42765U 17036A   22157.39918573  .00007320  00000+0  25787-3 0  9996
2 42765  97.1977 200.4108 0009221  16.3228 343.8308 15.29540446275572
NIUSAT                  
1 42766U 17036B   22156.85665273  .00005504  00000+0  21504-3 0  9998
2 42766  97.2024 195.0930 0013690  16.9212 343.2481 15.26184541275037
CARTOSAT-2E             
1 42767U 17036C   22157.53222377  .00002186  00000+0  10701-3 0  9999
2 42767  97.4538 218.1761 0008198  63.1902  44.1245 15.19209109274704
LITUANICASAT-2          
1 42768U 17036D   22157.38720935  .00015143  00000+0  44620-3 0  9990
2 42768  97.2064 202.9851 0009198 355.5118   4.6041 15.35080732275552
AALTO-1                 
1 42775U 17036L   22156.82346535  .00004187  00000+0  16777-3 0  9994
2 42775  97.1979 195.0041 0012629  16.7218 343.4435 15.25490402275006
URSA MAIOR              
1 42776U 17036M   22156.54626990  .00004612  00000+0  18162-3 0  9993
2 42776  97.1994 195.4534 0012286  16.7980 343.3663 15.26025108274997
COMPASS 2               
1 42777U 17036N   22156.86932606  .00010979  00000+0  35517-3 0  9999
2 42777  97.2048 201.9050 0008754   4.4064 355.7254 15.32188445275374
MAX VALIER SAT          
1 42778U 17036P   22156.85500463  .00005394  00000+0  20698-3 0  9990
2 42778  97.2056 198.3555 0010908  18.6570 341.5067 15.26827144275134
PEGASUS                 
1 42784U 17036V   22156.85657327  .00006998  00000+0  25331-3 0  9999
2 42784  97.1993 199.1654 0010171  19.8549 340.3085 15.28659539275242
NUDTSAT                 
1 42787U 17036Y   22157.20550476  .00012687  00000+0  39621-3 0  9998
2 42787  97.2021 203.5116 0008079   7.1736 352.9619 15.33287143275373
SUCHAI                  
1 42788U 17036Z   22156.86576624  .00008466  00000+0  29025-3 0  9990
2 42788  97.2000 200.7735 0009213  15.8485 344.3043 15.30379080275415
SKCUBE                  
1 42789U 17036AA  22156.39895169  .00007103  00000+0  24943-3 0  9998
2 42789  97.1996 199.8020 0009387  18.6629 341.4955 15.29654533275234
VZLUSAT-1               
1 42790U 17036AB  22156.55937321  .00010776  00000+0  33855-3 0  9997
2 42790  97.2025 202.8538 0007684  11.6170 348.5249 15.33138573275422
ROBUSTA-1B              
1 42792U 17036AD  22156.35854095  .00007123  00000+0  24644-3 0  9991
2 42792  97.1997 200.3157 0008938  19.1851 340.9725 15.30142625275271
D-SAT                   
1 42794U 17036AF  22156.81650568  .00001481  00000+0  12883-3 0  9996
2 42794  97.4512 162.8431 0124721 123.7504 237.5673 14.92572541269741
NORSAT 2                
1 42828U 17042D   22157.50084808  .00001176  00000+0  11859-3 0  9999
2 42828  97.4314  14.4696 0015201  45.6365 314.6097 14.92789594266510
TECHNOSAT               
1 42829U 17042E   22157.48602792  .00000810  00000+0  85204-4 0  9995
2 42829  97.4222  12.2646 0015180  48.6323 311.6200 14.91839791266453
2017-042F               
1 42830U 17042F   22157.48614842  .00003327  00000+0  30957-3 0  9996
2 42830  97.4365  16.5741 0014494  39.5685 320.6591 14.94875782266640
FLYING LAPTOP           
1 42831U 17042G   22157.05953538  .00000023  00000+0  73843-5 0  9991
2 42831  97.4235  12.1804 0015104  49.4687 310.7867 14.91762379266392
CORVUS BC2              
1 42846U 17042X   22156.88731715  .00001012  00000+0  10268-3 0  9997
2 42846  97.4244  14.8511 0010497  43.0851 317.1189 14.92870382266556
CORVUS BC1              
1 42847U 17042Y   22156.83467202  .00000785  00000+0  80573-4 0  9993
2 42847  97.4246  15.1052 0010151  42.5279 317.6726 14.92975711266552
SIMPL                   
1 42983U 98067NF  22157.54330267  .00113280  16261-4  28374-3 0  9995
2 42983  51.6284 239.4526 0006288 326.6674  33.3937 15.95519518263191
CZ-4C R/B               
1 43012U 17072C   22157.34772678  .00000126  00000+0  37300-4 0  9993
2 43012  98.6980 192.9843 0127041 352.0150   7.9022 14.56343907242245
RADFXSAT (FOX-1B)       
1 43017U 17073E   22156.68582181  .00001461  00000+0  11524-3 0  9995
2 43017  97.6766  51.3599 0247711 226.1670 131.8832 14.81339069245377
EAGLESAT 1              
1 43018U 17073F   22157.18622175  .00002376  00000+0  17769-3 0  9993
2 43018  97.6791  53.5656 0240640 218.5921 139.7881 14.83526292245427
INS-1C                  
1 43116U 18004F   22157.45940837  .00007264  00000+0  25442-3 0  9993
2 43116  97.3757 233.5604 0008302  43.0752 317.1136 15.29755192244651
FLOCK 3P'-3             
1 43119U 18004J   22157.42386992  .00003030  00000+0  11682-3 0  9997
2 43119  97.3750 231.6081 0010225  51.5188 308.6967 15.27043225244538
FLOCK 3P'-2             
1 43120U 18004K   22156.64099285  .00003534  00000+0  13769-3 0  9995
2 43120  97.3755 230.4555 0010099  55.8361 304.3834 15.26586174244380
FLOCK 3P'-1             
1 43121U 18004L   22157.21483772  .00015401  00000+0  43990-3 0  9993
2 43121  97.3766 235.7219 0006557  37.2802 322.8896 15.36081173244716
FLOCK 3P'-4             
1 43122U 18004M   22156.62742250  .00003579  00000+0  13937-3 0  9998
2 43122  97.3762 230.6094 0010070  58.1372 302.0846 15.26596091244384
MICROMAS-2A             
1 43131U 18004W   22157.21284542  .00013492  00000+0  38907-3 0  9998
2 43131  97.3751 236.4678 0006155  42.8504 317.3218 15.35814370244857
PICSAT                  
1 43132U 18004X   22156.46953717  .00007178  00000+0  24078-3 0  9990
2 43132  97.3713 232.9148 0008225  51.7751 308.4230 15.31162244244578
CNUSAIL-1               
1 43133U 18004Y   22157.43279351  .00005731  00000+0  20933-3 0  9993
2 43133  97.3674 231.9139 0009165  51.7040 308.5022 15.28462330244608
2018-004Z               
1 43134U 18004Z   22157.44223388  .00007211  00000+0  25073-3 0  9999
2 43134  97.3701 233.1858 0008505  49.9393 310.2592 15.29993270244671
FOX-1D (AO-92)          
1 43137U 18004AC  22157.23374900  .00005588  00000+0  19968-3 0  9997
2 43137  97.3682 232.4924 0008547  52.3299 307.8715 15.29202160244622
STEP CUBE LAB           
1 43138U 18004AD  22157.44975607  .00011976  00000+0  36594-3 0  9994
2 43138  97.3749 236.1257 0006857  46.8086 313.3728 15.34008874244854
XIAOXIANG-2             
1 43155U 18008A   22157.47200116  .00004372  00000+0  23548-3 0  9993
2 43155  97.3523 216.2220 0016662 177.1362 278.8031 15.15205604241614
ZHOU ENLAI              
1 43156U 18008B   22157.48806050  .00004920  00000+0  26645-3 0  9994
2 43156  97.3571 216.1113 0014070 176.5467 292.1109 15.14982291241548
QUANTUTONG 1            
1 43158U 18008D   22157.60625917  .00003678  00000+0  20595-3 0  9998
2 43158  97.3526 214.2265 0012583 176.5762 348.2016 15.13964532241460
